NORAD_CAT_ID,OBJECT_NAME,OBJECT_TYPE,EPOCH,MEAN_MOTION,ECCENTRICITY,INCLINATION,RA_OF_ASC_NODE,ARG_OF_PERICENTER,MEAN_ANOMALY,BSTAR,MEAN_MOTION_DOT,MEAN_MOTION_DDOT,TLE_LINE0,TLE_LINE1,TLE_LINE2,SEMIMAJOR_AXIS,PERIOD,APOGEE,PERIGEE,DECAYED
54177.0,STARLINK-5186,PAYLOAD,2023-11-10 01:38:31,15.08854803,0.0001496,53.2164,222.6474,98.8956,261.2205,0.00081769,0.00012755,0.0,0 STARLINK-5186,1 54177U 22141W   23314.06842070  .00012755  00000-0  81769-3 0  9998,2 54177  53.2164 222.6474 0001496  98.8956 261.2205 15.08854803 57449,6917.835,95.437,540.735,538.665,0.0
54177.0,STARLINK-5186,PAYLOAD,2023-11-10 11:10:50,15.08843898,0.0001514,53.2159,220.86,95.2043,264.9122,0.00068141,0.00010574,0.0,0 STARLINK-5186,1 54177U 22141W   23314.46585840  .00010574  00000-0  68141-3 0  9997,2 54177  53.2159 220.8600 0001514  95.2043 264.9122 15.08843898 57500,6917.868,95.437,540.781,538.686,0.0
54177.0,STARLINK-5186,PAYLOAD,2023-11-11 03:04:41,15.08847067,0.00016,53.2158,217.8841,95.046,265.0715,0.00096811,0.00015156,0.0,0 STARLINK-5186,1 54177U 22141W   23315.12826162  .00015156  00000-0  96811-3 0  9992,2 54177  53.2158 217.8841 0001600  95.0460 265.0715 15.08847067 57602,6917.859,95.437,540.831,538.617,0.0
54177.0,STARLINK-5186,PAYLOAD,2023-11-11 11:01:37,15.08835825,0.0002268,53.2177,216.3979,88.9838,271.1414,0.00011596,1.558e-05,0.0,0 STARLINK-5186,1 54177U 22141W   23315.45946698  .00001558  00000-0  11596-3 0  9993,2 54177  53.2177 216.3979 0002268  88.9838 271.1414 15.08835825 57658,6917.893,95.438,541.327,538.189,0.0
54177.0,STARLINK-5186,PAYLOAD,2023-11-11 22:09:19,15.08836099,0.0002032,53.2173,214.3143,93.6225,266.5,0.00025842,3.827e-05,0.0,0 STARLINK-5186,1 54177U 22141W   23315.92314741  .00003827  00000-0  25842-3 0  9993,2 54177  53.2173 214.3143 0002032  93.6225 266.5000 15.08836099 57728,6917.892,95.438,541.163,538.352,0.0
54177.0,STARLINK-5186,PAYLOAD,2023-11-12 10:52:25,15.08840382,0.0001734,53.2169,211.9366,93.8256,266.2935,0.00034649,5.231e-05,0.0,0 STARLINK-5186,1 54177U 22141W   23316.45306846  .00005231  00000-0  34649-3 0  9995,2 54177  53.2169 211.9366 0001734  93.8256 266.2935 15.08840382 57800,6917.879,95.438,540.944,538.545,0.0
54177.0,STARLINK-5186,PAYLOAD,2023-11-12 22:00:06,15.08849626,0.000176,53.2167,209.8536,97.0243,263.095,0.00052108,8.017e-05,0.0,0 STARLINK-5186,1 54177U 22141W   23316.91674566  .00008017  00000-0  52108-3 0  9998,2 54177  53.2167 209.8536 0001760  97.0243 263.0950 15.08849626 57873,6917.851,95.437,540.934,538.498,0.0
54177.0,STARLINK-5186,PAYLOAD,2023-11-13 02:46:16,15.08856161,0.0001711,53.2162,208.9632,93.3724,266.7464,0.00064766,0.00010039,0.0,0 STARLINK-5186,1 54177U 22141W   23317.11546370  .00010039  00000-0  64766-3 0  9992,2 54177  53.2162 208.9632 0001711  93.3724 266.7464 15.08856161 57900,6917.831,95.437,540.88,538.512,0.0
54177.0,STARLINK-5186,PAYLOAD,2023-11-13 23:26:16,15.08850478,0.0002005,53.2164,205.0973,87.3769,272.7452,0.00034288,5.175e-05,0.0,0 STARLINK-5186,1 54177U 22141W   23317.97658458  .00005175  00000-0  34288-3 0  9998,2 54177  53.2164 205.0973 0002005  87.3769 272.7452 15.08850478 58031,6917.848,95.437,541.1,538.326,0.0
54177.0,STARLINK-5186,PAYLOAD,2023-11-14 16:55:31,15.08841312,8.72e-05,53.217,201.8276,58.0274,302.0803,0.00024057,3.543e-05,0.0,0 STARLINK-5186,1 54177U 22141W   23318.70522686  .00003543  00000-0  24057-3 0  9993,2 54177  53.2170 201.8276 0000872  58.0274 302.0803 15.08841312 58140,6917.876,95.437,540.345,539.138,0.0
54177.0,STARLINK-5186,PAYLOAD,2023-11-14 23:17:04,15.0884437,8.07e-05,53.2168,200.6374,48.89,311.2162,0.00034185,5.158e-05,0.0,0 STARLINK-5186,1 54177U 22141W   23318.97018603  .00005158  00000-0  34185-3 0  9998,2 54177  53.2168 200.6374 0000807  48.8900 311.2162 15.08844370 58185,6917.867,95.437,540.29,539.174,0.0
54177.0,STARLINK-5186,PAYLOAD,2023-11-15 23:07:51,15.08839847,8.43e-05,53.2166,196.1777,48.7468,311.3596,9.5038e-05,1.225e-05,0.0,0 STARLINK-5186,1 54177U 22141W   23319.96378759  .00001225  00000-0  95038-4 0  9995,2 54177  53.2166 196.1777 0000843  48.7468 311.3596 15.08839847 58339,6917.881,95.438,540.329,539.163,0.0
54177.0,STARLINK-5186,PAYLOAD,2023-11-16 02:18:37,15.08839774,0.0001179,53.2112,195.5805,68.5299,291.5819,0.00010871,1.443e-05,0.0,0 STARLINK-5186,1 54177U 22141W   23320.09626739  .00001443  00000-0  10871-3 0  9998,2 54177  53.2112 195.5805 0001179  68.5299 291.5819 15.08839774 58358,6917.881,95.438,540.562,538.93,0.0
54177.0,STARLINK-5186,PAYLOAD,2023-11-17 02:09:24,15.08839336,0.0001543,53.2134,191.1222,86.6997,273.4172,4.1359e-05,3.7e-06,0.0,0 STARLINK-5186,1 54177U 22141W   23321.08986871  .00000370  00000-0  41359-4 0  9998,2 54177  53.2134 191.1222 0001543  86.6997 273.4172 15.08839336 58500,6917.882,95.438,540.815,538.68,0.0
54177.0,STARLINK-5186,PAYLOAD,2023-11-17 16:27:53,15.08837795,0.0001457,53.214,188.4454,89.163,270.9529,8.3405e-05,1.04e-05,0.0,0 STARLINK-5186,1 54177U 22141W   23321.68603017  .00001040  00000-0  83405-4 0  9995,2 54177  53.2140 188.4454 0001457  89.1630 270.9529 15.08837795 58593,6917.887,95.438,540.76,538.744,0.0
54177.0,STARLINK-5186,PAYLOAD,2023-11-17 22:49:25,15.08840688,0.000148,53.2168,187.2559,82.1821,277.9339,0.0001167,1.57e-05,0.0,0 STARLINK-5186,1 54177U 22141W   23321.95098905  .00001570  00000-0  11670-3 0  9991,2 54177  53.2168 187.2559 0001480  82.1821 277.9339 15.08840688 58633,6917.878,95.438,540.767,538.719,0.0
54177.0,STARLINK-5186,PAYLOAD,2023-11-18 08:21:45,15.08817781,0.0001824,53.2166,185.472,85.9572,274.1629,-0.00019247,-3.348e-05,0.0,0 STARLINK-5186,1 54177U 22141W   23322.34844523 -.00003348  00000-0 -19247-3 0  9995,2 54177  53.2166 185.4720 0001824  85.9572 274.1629 15.08817781 58692,6917.948,95.439,541.075,538.551,0.0
54177.0,STARLINK-5186,PAYLOAD,2023-11-18 21:04:51,15.08817649,0.0001408,53.2173,183.0928,91.5313,268.584,-6.3324e-05,-1.295e-05,0.0,0 STARLINK-5186,1 54177U 22141W   23322.87837773 -.00001295  00000-0 -63324-4 0  9997,2 54177  53.2173 183.0928 0001408  91.5313 268.5840 15.08817649 58772,6917.949,95.439,540.788,538.84,0.0
54177.0,STARLINK-5186,PAYLOAD,2023-11-19 08:12:32,15.088372,7.31e-05,53.2187,181.0131,106.257,253.8502,3.0114e-06,-2.4e-06,0.0,0 STARLINK-5186,1 54177U 22141W   23323.34204606 -.00000240  00000-0  30114-5 0  9993,2 54177  53.2187 181.0131 0000731 106.2570 253.8502 15.08837200 58843,6917.889,95.438,540.26,539.248,0.0
54177.0,STARLINK-5186,PAYLOAD,2023-11-19 20:55:38,15.08843307,0.0001211,53.2138,178.6348,82.9497,277.1633,0.0002711,4.03e-05,0.0,0 STARLINK-5186,1 54177U 22141W   23323.87196765  .00004030  00000-0  27110-3 0  9997,2 54177  53.2138 178.6348 0001211  82.9497 277.1633 15.08843307 58921,6917.87,95.437,540.573,538.898,0.0
54177.0,STARLINK-5186,PAYLOAD,2023-11-20 08:03:19,15.08854781,0.000142,53.2146,176.5517,85.6418,274.4736,0.0004268,6.514e-05,0.0,0 STARLINK-5186,1 54177U 22141W   23324.33564225  .00006514  00000-0  42680-3 0  9997,2 54177  53.2146 176.5517 0001420  85.6418 274.4736 15.08854781 58999,6917.835,95.437,540.683,538.718,0.0
54177.0,STARLINK-5186,PAYLOAD,2023-11-20 20:46:24,15.08870927,0.0001539,53.215,174.1721,83.9136,276.2032,0.00073072,0.0001137,0.0,0 STARLINK-5186,1 54177U 22141W   23324.86555759  .00011370  00000-0  73072-3 0  9992,2 54177  53.2150 174.1721 0001539  83.9136 276.2032 15.08870927 59073,6917.786,95.436,540.716,538.586,0.0
54177.0,STARLINK-5186,PAYLOAD,2023-11-20 23:57:10,15.08882214,0.0001554,53.2151,173.5791,79.4028,280.7139,0.00086886,0.00013583,0.0,0 STARLINK-5186,1 54177U 22141W   23324.99803255  .00013583  00000-0  86886-3 0  9998,2 54177  53.2151 173.5791 0001554  79.4028 280.7139 15.08882214 59093,6917.751,95.435,540.691,538.541,0.0
54177.0,STARLINK-5186,PAYLOAD,2023-11-21 14:15:38,15.08862311,0.0001701,53.2156,170.9014,89.5987,270.52,0.00035139,5.312e-05,0.0,0 STARLINK-5186,1 54177U 22141W   23325.59419113  .00005312  00000-0  35139-3 0  9997,2 54177  53.2156 170.9014 0001701  89.5987 270.5200 15.08862311 59189,6917.812,95.436,540.854,538.5,0.0
54177.0,STARLINK-5186,PAYLOAD,2023-11-21 19:01:47,15.08855427,0.0001455,53.2151,170.009,67.8986,292.216,0.00013352,1.839e-05,0.0,0 STARLINK-5186,1 54177U 22141W   23325.79291176  .00001839  00000-0  13352-3 0  9999,2 54177  53.2151 170.0090 0001455  67.8986 292.2160 15.08855427 59213,6917.833,95.437,540.705,538.692,0.0
54177.0,STARLINK-5186,PAYLOAD,2023-11-21 20:37:10,15.08854295,0.0001621,53.2159,169.7116,87.6721,272.4457,7.9773e-05,9.82e-06,0.0,0 STARLINK-5186,1 54177U 22141W   23325.85915117  .00000982  00000-0  79773-4 0  9992,2 54177  53.2159 169.7116 0001621  87.6721 272.4457 15.08854295 59229,6917.837,95.437,540.823,538.58,0.0
54177.0,STARLINK-5186,PAYLOAD,2023-11-21 23:47:56,15.08854601,0.0001493,53.2158,169.117,89.3587,270.7576,0.00012886,1.764e-05,0.0,0 STARLINK-5186,1 54177U 22141W   23325.99162982  .00001764  00000-0  12886-3 0  9991,2 54177  53.2158 169.1170 0001493  89.3587 270.7576 15.08854601 59244,6917.836,95.437,540.734,538.668,0.0
54177.0,STARLINK-5186,PAYLOAD,2023-11-22 18:52:34,15.08848589,0.0001565,53.2156,165.5479,95.127,264.9901,9.9023e-05,1.289e-05,0.0,0 STARLINK-5186,1 54177U 22141W   23326.78650866  .00001289  00000-0  99023-4 0  9993,2 54177  53.2156 165.5479 0001565  95.1270 264.9901 15.08848589 59366,6917.854,95.437,540.802,538.636,0.0
54177.0,STARLINK-5186,PAYLOAD,2023-11-22 20:27:57,15.08850239,0.0001559,53.2157,165.2501,95.8042,264.3128,3.8295e-05,3.22e-06,0.0,0 STARLINK-5186,1 54177U 22141W   23326.85274752  .00000322  00000-0  38295-4 0  9998,2 54177  53.2157 165.2501 0001559  95.8042 264.3128 15.08850239 59378,6917.849,95.437,540.793,538.636,0.0
54177.0,STARLINK-5186,PAYLOAD,2023-11-23 13:57:12,15.08835122,0.0001599,53.2154,161.9791,97.4938,262.6235,-4.0001e-05,-9.24e-06,0.0,0 STARLINK-5186,1 54177U 22141W   23327.58139375 -.00000924  00000-0 -40001-4 0  9998,2 54177  53.2154 161.9791 0001599  97.4938 262.6235 15.08835122 59481,6917.895,95.438,540.866,538.654,0.0
